SOYUZ-MS 28             
1 66664U 25275A   25362.21118694  .00015781  00000+0  28493-3 0  9999
2 66664  51.6320  65.8529 0003260 313.9289  46.1430 15.49897702  1289
1998-067XS              
1 66906U 98067XS  25362.19312283  .00034866  00000+0  58581-3 0  9990
2 66906  51.6324  65.7333 0002612 281.7047  78.3649 15.51427236  4015
1998-067XT              
1 66907U 98067XT  25362.17627517  .00083545  00000+0  12878-2 0  9994
2 66907  51.6317  65.6211 0003917 321.9925  38.0789 15.53434707  4014
1998-067XU              
1 66908U 98067XU  25361.91777036  .00067801  00000+0  10494-2 0  9997
2 66908  51.6317  66.8944 0004039 316.9902  43.0773 15.53412367  3977
SILVERSAT               
1 66909U 98067XV  25361.46540558  .00076025  00000+0  11635-2 0  9991
2 66909  51.6313  69.1235 0003945 319.4612  40.6084 15.53674289  3908
1998-067XW              
1 66910U 98067XW  25361.91416426  .00079310  00000+0  12148-2 0  9999
2 66910  51.6305  66.8697 0003671 293.1612  66.8991 15.53633108  3970
1998-067XX              
1 66911U 98067XX  25362.23081325  .00100700  00000+0  14992-2 0  9999
2 66911  51.6309  65.2355 0003415 306.4230  53.6446 15.54307955  4013
1998-067XY              
1 66912U 98067XY  25362.18236603  .00061829  00000+0  98355-3 0  9999
2 66912  51.6316  65.6619 0003859 311.4501  48.6157 15.52694180  4007
