CCSDS_OMM_VERS = 2.0
CREATION_DATE  = 
ORIGINATOR     = 

OBJECT_NAME    = SOYUZ-MS 28
OBJECT_ID      = 2025-275A
CENTER_NAME    = EARTH
REF_FRAME      = TEME
TIME_SYSTEM    = UTC
MEAN_ELEMENT_THEORY = SGP/SGP4

EPOCH          = 2025-12-28T05:04:06.551616
MEAN_MOTION    = 15.49897702
ECCENTRICITY   = .000326
INCLINATION    = 51.6320
RA_OF_ASC_NODE = 65.8529
ARG_OF_PERICENTER = 313.9289
MEAN_ANOMALY   = 46.1430

EPHEMERIS_TYPE = 0
CLASSIFICATION_TYPE = U
NORAD_CAT_ID   = 66664
ELEMENT_SET_NO = 999
REV_AT_EPOCH   = 128
BSTAR          = .28493376E-3
MEAN_MOTION_DOT = .15781E-3
MEAN_MOTION_DDOT = 0

CCSDS_OMM_VERS = 2.0
CREATION_DATE  = 
ORIGINATOR     = 

OBJECT_NAME    = 1998-067XS
OBJECT_ID      = 1998-067XS
CENTER_NAME    = EARTH
REF_FRAME      = TEME
TIME_SYSTEM    = UTC
MEAN_ELEMENT_THEORY = SGP/SGP4

EPOCH          = 2025-12-28T04:38:05.812512
MEAN_MOTION    = 15.51427236
ECCENTRICITY   = .00026129
INCLINATION    = 51.6324
RA_OF_ASC_NODE = 65.7333
ARG_OF_PERICENTER = 281.7047
MEAN_ANOMALY   = 78.3649

EPHEMERIS_TYPE = 0
CLASSIFICATION_TYPE = U
NORAD_CAT_ID   = 66906
ELEMENT_SET_NO = 999
REV_AT_EPOCH   = 401
BSTAR          = .58580626E-3
MEAN_MOTION_DOT = .34866E-3
MEAN_MOTION_DDOT = 0

CCSDS_OMM_VERS = 2.0
CREATION_DATE  = 
ORIGINATOR     = 

OBJECT_NAME    = 1998-067XT
OBJECT_ID      = 1998-067XT
CENTER_NAME    = EARTH
REF_FRAME      = TEME
TIME_SYSTEM    = UTC
MEAN_ELEMENT_THEORY = SGP/SGP4

EPOCH          = 2025-12-28T04:13:50.174688
MEAN_MOTION    = 15.53434707
ECCENTRICITY   = .0003917
INCLINATION    = 51.6317
RA_OF_ASC_NODE = 65.6211
ARG_OF_PERICENTER = 321.9925
MEAN_ANOMALY   = 38.0789

EPHEMERIS_TYPE = 0
CLASSIFICATION_TYPE = U
NORAD_CAT_ID   = 66907
ELEMENT_SET_NO = 999
REV_AT_EPOCH   = 401
BSTAR          = .12878253E-2
MEAN_MOTION_DOT = .83545E-3
MEAN_MOTION_DDOT = 0

CCSDS_OMM_VERS = 2.0
CREATION_DATE  = 
ORIGINATOR     = 

OBJECT_NAME    = 1998-067XU
OBJECT_ID      = 1998-067XU
CENTER_NAME    = EARTH
REF_FRAME      = TEME
TIME_SYSTEM    = UTC
MEAN_ELEMENT_THEORY = SGP/SGP4

EPOCH          = 2025-12-27T22:01:35.359104
MEAN_MOTION    = 15.53412367
ECCENTRICITY   = .0004039
INCLINATION    = 51.6317
RA_OF_ASC_NODE = 66.8944
ARG_OF_PERICENTER = 316.9902
MEAN_ANOMALY   = 43.0773

EPHEMERIS_TYPE = 0
CLASSIFICATION_TYPE = U
NORAD_CAT_ID   = 66908
ELEMENT_SET_NO = 999
REV_AT_EPOCH   = 397
BSTAR          = .10494E-2
MEAN_MOTION_DOT = .67801E-3
MEAN_MOTION_DDOT = 0

CCSDS_OMM_VERS = 2.0
CREATION_DATE  = 
ORIGINATOR     = 

OBJECT_NAME    = SILVERSAT
OBJECT_ID      = 1998-067XV
CENTER_NAME    = EARTH
REF_FRAME      = TEME
TIME_SYSTEM    = UTC
MEAN_ELEMENT_THEORY = SGP/SGP4

EPOCH          = 2025-12-27T11:10:11.042112
MEAN_MOTION    = 15.53674289
ECCENTRICITY   = .00039453
INCLINATION    = 51.6313
RA_OF_ASC_NODE = 69.1235
ARG_OF_PERICENTER = 319.4612
MEAN_ANOMALY   = 40.6084

EPHEMERIS_TYPE = 0
CLASSIFICATION_TYPE = U
NORAD_CAT_ID   = 66909
ELEMENT_SET_NO = 999
REV_AT_EPOCH   = 390
BSTAR          = .11635231E-2
MEAN_MOTION_DOT = .76025E-3
MEAN_MOTION_DDOT = 0

CCSDS_OMM_VERS = 2.0
CREATION_DATE  = 
ORIGINATOR     = 

OBJECT_NAME    = 1998-067XW
OBJECT_ID      = 1998-067XW
CENTER_NAME    = EARTH
REF_FRAME      = TEME
TIME_SYSTEM    = UTC
MEAN_ELEMENT_THEORY = SGP/SGP4

EPOCH          = 2025-12-27T21:56:23.792064
MEAN_MOTION    = 15.53633108
ECCENTRICITY   = .0003671
INCLINATION    = 51.6305
RA_OF_ASC_NODE = 66.8697
ARG_OF_PERICENTER = 293.1612
MEAN_ANOMALY   = 66.8991

EPHEMERIS_TYPE = 0
CLASSIFICATION_TYPE = U
NORAD_CAT_ID   = 66910
ELEMENT_SET_NO = 999
REV_AT_EPOCH   = 397
BSTAR          = .12148E-2
MEAN_MOTION_DOT = .7931E-3
MEAN_MOTION_DDOT = 0

CCSDS_OMM_VERS = 2.0
CREATION_DATE  = 
ORIGINATOR     = 

OBJECT_NAME    = 1998-067XX
OBJECT_ID      = 1998-067XX
CENTER_NAME    = EARTH
REF_FRAME      = TEME
TIME_SYSTEM    = UTC
MEAN_ELEMENT_THEORY = SGP/SGP4

EPOCH          = 2025-12-28T05:32:22.264800
MEAN_MOTION    = 15.54307955
ECCENTRICITY   = .00034151
INCLINATION    = 51.6309
RA_OF_ASC_NODE = 65.2355
ARG_OF_PERICENTER = 306.4230
MEAN_ANOMALY   = 53.6446

EPHEMERIS_TYPE = 0
CLASSIFICATION_TYPE = U
NORAD_CAT_ID   = 66911
ELEMENT_SET_NO = 999
REV_AT_EPOCH   = 401
BSTAR          = .14991519E-2
MEAN_MOTION_DOT = .1007E-2
MEAN_MOTION_DDOT = 0

CCSDS_OMM_VERS = 2.0
CREATION_DATE  = 
ORIGINATOR     = 

OBJECT_NAME    = 1998-067XY
OBJECT_ID      = 1998-067XY
CENTER_NAME    = EARTH
REF_FRAME      = TEME
TIME_SYSTEM    = UTC
MEAN_ELEMENT_THEORY = SGP/SGP4

EPOCH          = 2025-12-28T04:22:36.424992
MEAN_MOTION    = 15.52694180
ECCENTRICITY   = .00038596
INCLINATION    = 51.6316
RA_OF_ASC_NODE = 65.6619
ARG_OF_PERICENTER = 311.4501
MEAN_ANOMALY   = 48.6157

EPHEMERIS_TYPE = 0
CLASSIFICATION_TYPE = U
NORAD_CAT_ID   = 66912
ELEMENT_SET_NO = 999
REV_AT_EPOCH   = 400
BSTAR          = .9835471E-3
MEAN_MOTION_DOT = .61829E-3
MEAN_MOTION_DDOT = 0

